[{"OBJECT_NAME":"STARLINK-3777","OBJECT_ID":"2022-041AK","EPOCH":"2026-03-09T11:32:38.867424","MEAN_MOTION":15.08844411,"ECCENTRICITY":0.00012646,"INCLINATION":53.2165,"RA_OF_ASC_NODE":100.0567,"ARG_OF_PERICENTER":96.9843,"MEAN_ANOMALY":263.1294,"EPHEMERIS_TYPE":0,"CLASSIFICATION_TYPE":"U","NORAD_CAT_ID":52294,"ELEMENT_SET_NO":999,"REV_AT_EPOCH":21447,"BSTAR":6.750349e-6,"MEAN_MOTION_DOT":-1.8e-6,"MEAN_MOTION_DDOT":0},{"OBJECT_NAME":"FENGYUN 1C DEB","OBJECT_ID":"1999-025CFH","EPOCH":"2026-03-07T23:38:47.437728","MEAN_MOTION":14.44985594,"ECCENTRICITY":0.03068092,"INCLINATION":98.0605,"RA_OF_ASC_NODE":76.6957,"ARG_OF_PERICENTER":189.4978,"MEAN_ANOMALY":170.0331,"EPHEMERIS_TYPE":0,"CLASSIFICATION_TYPE":"U","NORAD_CAT_ID":31758,"ELEMENT_SET_NO":999,"REV_AT_EPOCH":95430,"BSTAR":0.0018761349,"MEAN_MOTION_DOT":0.00011691,"MEAN_MOTION_DDOT":0}]
